STARLINK-36946          
1 68382U 26063C   26092.75002315 -.01740716  89842-3 -38222-2 0  9997
2 68382  97.2827 233.5405 0001480  74.3083  72.6109 15.98248988  2328
